*******************************************************************************
Ephemeris / WWW_USER Thu Dec  5 18:37:48 2024 Pasadena, USA      / Horizons    
*******************************************************************************
Target body name: 62412 (2000 SY178)              {source: JPL#44}
Center body name: Earth (399)                     {source: DE441}
Center-site name: Mauna Kea
*******************************************************************************
Start time      : A.D. 2018-Nov-28 03:51:00.0000 UT      
Stop  time      : A.D. 2018-Nov-28 16:28:00.0000 UT      
Step-size       : 1 minutes
*******************************************************************************
Target pole/equ : undefined
Target radii    : 5.187 km                                                     
Center geodetic : 204.5278, 19.8260847, 4.21024   {E-lon(deg),Lat(deg),Alt(km)}
Center cylindric: 204.5278, 6006.35451, 2151.0229 {E-lon(deg),Dxy(km),Dz(km)}
Center pole/equ : ITRF93                          {East-longitude positive}
Center radii    : 6378.137, 6378.137, 6356.752 km {Equator_a, b, pole_c}       
Target primary  : Sun
Vis. interferer : MOON (R_eq= 1737.400) km        {source: DE441}
Rel. light bend : Sun                             {source: DE441}
Rel. lght bnd GM: 1.3271E+11 km^3/s^2                                          
Small-body perts: Yes                             {source: SB441-N16}
Atmos refraction: NO (AIRLESS)
RA format       : HMS
Time format     : CAL 
Calendar mode   : Mixed Julian/Gregorian
RTS-only print  : NO       
EOP file        : eop.241205.p250303                                           
EOP coverage    : DATA-BASED 1962-JAN-20 TO 2024-DEC-05. PREDICTS-> 2025-MAR-02
Units conversion: 1 au= 149597870.700 km, c= 299792.458 km/s, 1 day= 86400.0 s 
Table cut-offs 1: Elevation (-90.0deg=NO ),Airmass (>38.000=NO), Daylight (YES)
Table cut-offs 2: Solar elongation (  0.0,180.0=NO ),Local Hour Angle( 0.0=NO )
Table cut-offs 3: RA/DEC angular rate (     0.0=NO )                           
*******************************************************************************
Initial IAU76/J2000 heliocentric ecliptic osculating elements (au, days, deg.):
  EPOCH=  2458127.5 ! 2018-Jan-09.00 (TDB)         Residual RMS= .2787         
   EC= .08141730682229319  QR= 2.89613208739257    TP= 2458420.6685284483      
   OM= 329.1525583823792   W=  163.0619562799197   IN= 4.73619265468861        
  Equivalent ICRF heliocentric cartesian coordinates (au, au/d):
   X= 8.831945932166756E-01  Y= 2.532168596675914E+00  Z= 1.360803999508301E+00
  VX=-9.867256226021401E-03 VY= 2.254941400948641E-03 VZ= 7.028227572403328E-04
Asteroid physical parameters (km, seconds, rotational period in hours):        
   GM= n.a.                RAD= 5.187              ROTPER= 3.33                
   H= 13.88                G= .150                 B-V= n.a.                   
                           ALBEDO= .065            STYP= n.a.                  
*******************************************************************************
 Date__(UT)__HR:MN     R.A._________(ICRF)_________DEC
******************************************************
$$SOE
 2018-Nov-28 16:09 Nm  10 41 48.367862 +09 14 18.31376
 2018-Nov-28 16:10 Nm  10 41 48.399775 +09 14 18.08237
 2018-Nov-28 16:11 Nm  10 41 48.431686 +09 14 17.85098
 2018-Nov-28 16:12 Nm  10 41 48.463597 +09 14 17.61958
 2018-Nov-28 16:13 Nm  10 41 48.495507 +09 14 17.38818
 2018-Nov-28 16:14 Nm  10 41 48.527416 +09 14 17.15676
 2018-Nov-28 16:15 Cm  10 41 48.559324 +09 14 16.92534
 2018-Nov-28 16:16 Cm  10 41 48.591232 +09 14 16.69392
 2018-Nov-28 16:17 Cm  10 41 48.623139 +09 14 16.46248
 2018-Nov-28 16:18 Cm  10 41 48.655045 +09 14 16.23104
 2018-Nov-28 16:19 Cm  10 41 48.686950 +09 14 15.99960
 2018-Nov-28 16:20 Cm  10 41 48.718855 +09 14 15.76814
 2018-Nov-28 16:21 Cm  10 41 48.750759 +09 14 15.53668
 2018-Nov-28 16:22 Cm  10 41 48.782662 +09 14 15.30521
 2018-Nov-28 16:23 Cm  10 41 48.814565 +09 14 15.07374
 2018-Nov-28 16:24 Cm  10 41 48.846467 +09 14 14.84226
 2018-Nov-28 16:25 Cm  10 41 48.878368 +09 14 14.61077
 2018-Nov-28 16:26 Cm  10 41 48.910269 +09 14 14.37927
 2018-Nov-28 16:27 Cm  10 41 48.942169 +09 14 14.14777
 2018-Nov-28 16:28 Cm  10 41 48.974069 +09 14 13.91626
